{
  "type": "FeatureCollection",
  "features": [
    {
      "type": "Feature",
      "properties": {
        "norad_id": 37918,
        "name": "FENGYUN 1C DEB",
        "group": "fengyun-1c-debris",
        "lat": -73.29620186953028,
        "lon": -25.62736092605934,
        "alt_km": 746.8624818263988,
        "timestamp": "2025-12-18T15:47:11.512819+00:00",
        "meta_object_name": "FENGYUN 1C DEB",
        "meta_object_id": "1999-025ENT",
        "meta_epoch": "2025-12-16T15:35:18.492576",
        "meta_mean_motion": 14.34401089,
        "meta_eccentricity": 0.00549656,
        "meta_inclination": 99.028,
        "meta_ra_of_asc_node": 300.2835,
        "meta_arg_of_pericenter": 272.0908,
        "meta_mean_anomaly": 87.3982,
        "meta_ephemeris_type": 0,
        "meta_classification_type": "U",
        "meta_norad_cat_id": 37918,
        "meta_element_set_no": 999,
        "meta_rev_at_epoch": 3598,
        "meta_bstar": 0.00054462571,
        "meta_mean_motion_dot": 1.511e-05,
        "meta_mean_motion_ddot": 0,
        "tle_line1": "1 37918U 99025ENT 25350.64951959  .00001511  00000+0  54463-3 0  9998",
        "tle_line2": "2 37918  99.0280 300.2835 0054965 272.0908  87.3982 14.34401089 35982"
      },
      "geometry": {
        "type": "Point",
        "coordinates": [
          -25.62736092605934,
          -73.29620186953028
        ]
      }
    },
    {
      "type": "Feature",
      "properties": {
        "norad_id": 37919,
        "name": "FENGYUN 1C DEB",
        "group": "fengyun-1c-debris",
        "lat": -63.59917864600832,
        "lon": -50.44502285674069,
        "alt_km": 794.077373183256,
        "timestamp": "2025-12-18T15:47:11.512829+00:00",
        "meta_object_name": "FENGYUN 1C DEB",
        "meta_object_id": "1999-025ENU",
        "meta_epoch": "2025-12-12T06:55:51.957984",
        "meta_mean_motion": 14.2676163,
        "meta_eccentricity": 0.00496798,
        "meta_inclination": 99.0576,
        "meta_ra_of_asc_node": 284.2227,
        "meta_arg_of_pericenter": 17.6806,
        "meta_mean_anomaly": 342.6088,
        "meta_ephemeris_type": 0,
        "meta_classification_type": "U",
        "meta_norad_cat_id": 37919,
        "meta_element_set_no": 999,
        "meta_rev_at_epoch": 64902,
        "meta_bstar": 0.00082874062,
        "meta_mean_motion_dot": 1.986e-05,
        "meta_mean_motion_ddot": 0,
        "tle_line1": "1 37919U 99025ENU 25346.28879581  .00001986  00000+0  82874-3 0  9997",
        "tle_line2": "2 37919  99.0576 284.2227 0049679  17.6806 342.6088 14.26761630649025"
      },
      "geometry": {
        "type": "Point",
        "coordinates": [
          -50.44502285674069,
          -63.59917864600832
        ]
      }
    },
    {
      "type": "Feature",
      "properties": {
        "norad_id": 37921,
        "name": "FENGYUN 1C DEB",
        "group": "fengyun-1c-debris",
        "lat": -79.17135193883979,
        "lon": 89.76499485853104,
        "alt_km": 977.6856928127718,
        "timestamp": "2025-12-18T15:47:11.512839+00:00",
        "meta_object_name": "FENGYUN 1C DEB",
        "meta_object_id": "1999-025ENW",
        "meta_epoch": "2025-12-15T09:01:05.069568",
        "meta_mean_motion": 13.95156429,
        "meta_eccentricity": 0.00843191,
        "meta_inclination": 99.0218,
        "meta_ra_of_asc_node": 30.3959,
        "meta_arg_of_pericenter": 91.5684,
        "meta_mean_anomaly": 269.5138,
        "meta_ephemeris_type": 0,
        "meta_classification_type": "U",
        "meta_norad_cat_id": 37921,
        "meta_element_set_no": 999,
        "meta_rev_at_epoch": 63184,
        "meta_bstar": 6.6280037e-05,
        "meta_mean_motion_dot": 4.9e-07,
        "meta_mean_motion_ddot": 0,
        "tle_line1": "1 37921U 99025ENW 25349.37575312  .00000049  00000+0  66280-4 0  9991",
        "tle_line2": "2 37921  99.0218  30.3959 0084319  91.5684 269.5138 13.95156429631841"
      },
      "geometry": {
        "type": "Point",
        "coordinates": [
          89.76499485853104,
          -79.17135193883979
        ]
      }
    },
    {
      "type": "Feature",
      "properties": {
        "norad_id": 37925,
        "name": "FENGYUN 1C DEB",
        "group": "fengyun-1c-debris",
        "lat": 61.47101045301198,
        "lon": -154.53185518100912,
        "alt_km": 627.4840487190368,
        "timestamp": "2025-12-18T15:47:11.512849+00:00",
        "meta_object_name": "FENGYUN 1C DEB",
        "meta_object_id": "1999-025EPA",
        "meta_epoch": "2025-12-17T21:39:42.022944",
        "meta_mean_motion": 14.80410636,
        "meta_eccentricity": 0.00562547,
        "meta_inclination": 99.0862,
        "meta_ra_of_asc_node": 221.7351,
        "meta_arg_of_pericenter": 326.9012,
        "meta_mean_anomaly": 32.868,
        "meta_ephemeris_type": 0,
        "meta_classification_type": "U",
        "meta_norad_cat_id": 37925,
        "meta_element_set_no": 999,
        "meta_rev_at_epoch": 65759,
        "meta_bstar": 0.0012891872,
        "meta_mean_motion_dot": 0.00010061,
        "meta_mean_motion_ddot": 0,
        "tle_line1": "1 37925U 99025EPA 25351.90256971  .00010061  00000+0  12892-2 0  9997",
        "tle_line2": "2 37925  99.0862 221.7351 0056254 326.9012  32.8680 14.80410636657590"
      },
      "geometry": {
        "type": "Point",
        "coordinates": [
          -154.53185518100912,
          61.47101045301198
        ]
      }
    },
    {
      "type": "Feature",
      "properties": {
        "norad_id": 37926,
        "name": "FENGYUN 1C DEB",
        "group": "fengyun-1c-debris",
        "lat": 24.841168292165243,
        "lon": -120.13826040393026,
        "alt_km": 784.8020081508403,
        "timestamp": "2025-12-18T15:47:11.512859+00:00",
        "meta_object_name": "FENGYUN 1C DEB",
        "meta_object_id": "1999-025EPB",
        "meta_epoch": "2025-12-17T23:02:00.359232",
        "meta_mean_motion": 14.24254635,
        "meta_eccentricity": 0.00543945,
        "meta_inclination": 98.7241,
        "meta_ra_of_asc_node": 55.0926,
        "meta_arg_of_pericenter": 206.4638,
        "meta_mean_anomaly": 331.673,
        "meta_ephemeris_type": 0,
        "meta_classification_type": "U",
        "meta_norad_cat_id": 37926,
        "meta_element_set_no": 999,
        "meta_rev_at_epoch": 74344,
        "meta_bstar": 0.0011908764,
        "meta_mean_motion_dot": 2.746e-05,
        "meta_mean_motion_ddot": 0,
        "tle_line1": "1 37926U 99025EPB 25351.95972638  .00002746  00000+0  11909-2 0  9997",
        "tle_line2": "2 37926  98.7241  55.0926 0054394 206.4638 331.6730 14.24254635743442"
      },
      "geometry": {
        "type": "Point",
        "coordinates": [
          -120.13826040393026,
          24.841168292165243
        ]
      }
    },
    {
      "type": "Feature",
      "properties": {
        "norad_id": 37927,
        "name": "FENGYUN 1C DEB",
        "group": "fengyun-1c-debris",
        "lat": 55.16599989552287,
        "lon": 123.95347522116269,
        "alt_km": 654.8220166969413,
        "timestamp": "2025-12-18T15:47:11.512869+00:00",
        "meta_object_name": "FENGYUN 1C DEB",
        "meta_object_id": "1999-025EPC",
        "meta_epoch": "2025-12-17T05:16:20.802144",
        "meta_mean_motion": 14.71959072,
        "meta_eccentricity": 0.0008325,
        "meta_inclination": 98.8067,
        "meta_ra_of_asc_node": 135.2699,
        "meta_arg_of_pericenter": 262.0279,
        "meta_mean_anomaly": 97.9981,
        "meta_ephemeris_type": 0,
        "meta_classification_type": "U",
        "meta_norad_cat_id": 37927,
        "meta_element_set_no": 999,
        "meta_rev_at_epoch": 65182,
        "meta_bstar": 0.0033385946,
        "meta_mean_motion_dot": 0.00020951,
        "meta_mean_motion_ddot": 0,
        "tle_line1": "1 37927U 99025EPC 25351.21968521  .00020951  00000+0  33386-2 0  9994",
        "tle_line2": "2 37927  98.8067 135.2699 0008325 262.0279  97.9981 14.71959072651829"
      },
      "geometry": {
        "type": "Point",
        "coordinates": [
          123.95347522116269,
          55.16599989552287
        ]
      }
    },
    {
      "type": "Feature",
      "properties": {
        "norad_id": 37928,
        "name": "FENGYUN 1C DEB",
        "group": "fengyun-1c-debris",
        "lat": -25.190778408097284,
        "lon": -128.29782281799942,
        "alt_km": 734.1270664428803,
        "timestamp": "2025-12-18T15:47:11.512880+00:00",
        "meta_object_name": "FENGYUN 1C DEB",
        "meta_object_id": "1999-025EPD",
        "meta_epoch": "2025-12-15T09:22:08.363712",
        "meta_mean_motion": 14.37112428,
        "meta_eccentricity": 0.00730461,
        "meta_inclination": 98.9158,
        "meta_ra_of_asc_node": 224.0834,
        "meta_arg_of_pericenter": 25.3937,
        "meta_mean_anomaly": 335.0809,
        "meta_ephemeris_type": 0,
        "meta_classification_type": "U",
        "meta_norad_cat_id": 37928,
        "meta_element_set_no": 999,
        "meta_rev_at_epoch": 81230,
        "meta_bstar": 0.00052318414,
        "meta_mean_motion_dot": 1.555e-05,
        "meta_mean_motion_ddot": 0,
        "tle_line1": "1 37928U 99025EPD 25349.39037458  .00001555  00000+0  52318-3 0  9993",
        "tle_line2": "2 37928  98.9158 224.0834 0073046  25.3937 335.0809 14.37112428812308"
      },
      "geometry": {
        "type": "Point",
        "coordinates": [
          -128.29782281799942,
          -25.190778408097284
        ]
      }
    }
  ]
}